[{"OBJECT_NAME":"STARLINK-31561","OBJECT_ID":"2024-060E","EPOCH":"2026-03-09T12:46:28.245504","MEAN_MOTION":15.27576343,"ECCENTRICITY":6.664e-5,"INCLINATION":42.9985,"RA_OF_ASC_NODE":260.3254,"ARG_OF_PERICENTER":172.8342,"MEAN_ANOMALY":187.2519,"EPHEMERIS_TYPE":0,"CLASSIFICATION_TYPE":"U","NORAD_CAT_ID":59352,"ELEMENT_SET_NO":999,"REV_AT_EPOCH":11004,"BSTAR":6.634525e-6,"MEAN_MOTION_DOT":-7.9e-7,"MEAN_MOTION_DDOT":0},{"OBJECT_NAME":"HERMES-2","OBJECT_ID":"2025-052AK","EPOCH":"2026-03-09T22:17:00.130272","MEAN_MOTION":15.28021069,"ECCENTRICITY":0.00063399,"INCLINATION":97.4004,"RA_OF_ASC_NODE":324.4926,"ARG_OF_PERICENTER":99.416,"MEAN_ANOMALY":260.7796,"EPHEMERIS_TYPE":0,"CLASSIFICATION_TYPE":"U","NORAD_CAT_ID":63243,"ELEMENT_SET_NO":999,"REV_AT_EPOCH":5485,"BSTAR":0.00034839454,"MEAN_MOTION_DOT":9.456e-5,"MEAN_MOTION_DDOT":0}]
